{
  "60484": {
    "name": "PlanetScope-60484",
    "line1": "1 60484U 24149S   26080.21629443  .00128596  00000-0  25548-2 0  9996",
    "line2": "2 60484  97.3740 163.2568 0006620 210.0145 150.0726 15.46478687 88779",
    "meta": {
      "display_name": "PlanetScope-60484",
      "type": "optical",
      "swath_km": 8.0,
      "resolution_m": 4.0,
      "off_nadir_deg": 0,
      "altitude_km": 525.0,
      "priority": 10
    }
  },
  "60486": {
    "name": "PlanetScope-60486",
    "line1": "1 60486U 24149U   26080.79678067  .00028817  00000-0  73021-3 0  9992",
    "line2": "2 60486  97.3768 164.3622 0003688 200.9130 159.1965 15.39673187 88899",
    "meta": {
      "display_name": "PlanetScope-60486",
      "type": "optical",
      "swath_km": 8.0,
      "resolution_m": 4.0,
      "off_nadir_deg": 0,
      "altitude_km": 525.0,
      "priority": 10
    }
  },
  "60487": {
    "name": "PlanetScope-60487",
    "line1": "1 60487U 24149V   26080.95164392  .00020965  00000-0  59201-3 0  9992",
    "line2": "2 60487  97.3823 163.6577 0002721 175.5660 184.5609 15.36389644 88835",
    "meta": {
      "display_name": "PlanetScope-60487",
      "type": "optical",
      "swath_km": 8.0,
      "resolution_m": 4.0,
      "off_nadir_deg": 0,
      "altitude_km": 525.0,
      "priority": 10
    }
  },
  "60488": {
    "name": "PlanetScope-60488",
    "line1": "1 60488U 24149W   26080.75930696  .00030177  00000-0  74377-3 0  9996",
    "line2": "2 60488  97.3819 164.9711 0002841 192.1702 167.9477 15.40512168 88900",
    "meta": {
      "display_name": "PlanetScope-60488",
      "type": "optical",
      "swath_km": 8.0,
      "resolution_m": 4.0,
      "off_nadir_deg": 0,
      "altitude_km": 525.0,
      "priority": 10
    }
  },
  "60489": {
    "name": "PlanetScope-60489",
    "line1": "1 60489U 24149X   26080.67516591  .00021103  00000-0  61054-3 0  9999",
    "line2": "2 60489  97.3728 162.4803 0003829 194.1705 165.9432 15.35624764 88771",
    "meta": {
      "display_name": "PlanetScope-60489",
      "type": "optical",
      "swath_km": 8.0,
      "resolution_m": 4.0,
      "off_nadir_deg": 0,
      "altitude_km": 525.0,
      "priority": 10
    }
  },
  "60490": {
    "name": "PlanetScope-60490",
    "line1": "1 60490U 24149Y   26080.77504273  .00020869  00000-0  61077-3 0  9999",
    "line2": "2 60490  97.3804 162.9081 0003288 200.3725 159.7387 15.35266244 88777",
    "meta": {
      "display_name": "PlanetScope-60490",
      "type": "optical",
      "swath_km": 8.0,
      "resolution_m": 4.0,
      "off_nadir_deg": 0,
      "altitude_km": 525.0,
      "priority": 10
    }
  },
  "60491": {
    "name": "PlanetScope-60491",
    "line1": "1 60491U 24149Z   26080.78481798  .00100467  00000-0  23068-2 0  9997",
    "line2": "2 60491  97.3736 164.0776 0004235 258.0030 102.0743 15.42316008 88889",
    "meta": {
      "display_name": "PlanetScope-60491",
      "type": "optical",
      "swath_km": 8.0,
      "resolution_m": 4.0,
      "off_nadir_deg": 0,
      "altitude_km": 525.0,
      "priority": 10
    }
  },
  "60492": {
    "name": "PlanetScope-60492",
    "line1": "1 60492U 24149AA  26080.67487851  .00023066  00000-0  63726-3 0  9997",
    "line2": "2 60492  97.3804 163.5191 0003391 188.6463 171.4724 15.37051082 88804",
    "meta": {
      "display_name": "PlanetScope-60492",
      "type": "optical",
      "swath_km": 8.0,
      "resolution_m": 4.0,
      "off_nadir_deg": 0,
      "altitude_km": 525.0,
      "priority": 10
    }
  },
  "60494": {
    "name": "PlanetScope-60494",
    "line1": "1 60494U 24149AC  26080.66618453  .00028723  00000-0  76302-3 0  9991",
    "line2": "2 60494  97.3756 163.5756 0003496 205.2609 154.8465 15.38222593 88831",
    "meta": {
      "display_name": "PlanetScope-60494",
      "type": "optical",
      "swath_km": 8.0,
      "resolution_m": 4.0,
      "off_nadir_deg": 0,
      "altitude_km": 525.0,
      "priority": 10
    }
  },
  "60495": {
    "name": "PlanetScope-60495",
    "line1": "1 60495U 24149AD  26080.94690078  .00023194  00000-0  61363-3 0  9994",
    "line2": "2 60495  97.3803 164.6181 0003540 205.6742 154.4328 15.38392588 88905",
    "meta": {
      "display_name": "PlanetScope-60495",
      "type": "optical",
      "swath_km": 8.0,
      "resolution_m": 4.0,
      "off_nadir_deg": 0,
      "altitude_km": 525.0,
      "priority": 10
    }
  },
  "60497": {
    "name": "PlanetScope-60497",
    "line1": "1 60497U 24149AF  26080.76549642  .00028613  00000-0  74158-3 0  9993",
    "line2": "2 60497  97.3745 163.9426 0003623 207.2545 152.8511 15.38983601 88871",
    "meta": {
      "display_name": "PlanetScope-60497",
      "type": "optical",
      "swath_km": 8.0,
      "resolution_m": 4.0,
      "off_nadir_deg": 0,
      "altitude_km": 525.0,
      "priority": 10
    }
  },
  "60499": {
    "name": "PlanetScope-60499",
    "line1": "1 60499U 24149AH  26080.96823275  .00086200  00000-0  21366-2 0  9992",
    "line2": "2 60499  97.3824 164.7307 0002995 223.7107 136.3902 15.40063016 88284",
    "meta": {
      "display_name": "PlanetScope-60499",
      "type": "optical",
      "swath_km": 8.0,
      "resolution_m": 4.0,
      "off_nadir_deg": 0,
      "altitude_km": 525.0,
      "priority": 10
    }
  },
  "60501": {
    "name": "PlanetScope-60501",
    "line1": "1 60501U 24149AK  26080.67743999  .00027197  00000-0  68633-3 0  9997",
    "line2": "2 60501  97.3727 163.9971 0003838 209.9797 150.1230 15.39809360 88877",
    "meta": {
      "display_name": "PlanetScope-60501",
      "type": "optical",
      "swath_km": 8.0,
      "resolution_m": 4.0,
      "off_nadir_deg": 0,
      "altitude_km": 525.0,
      "priority": 10
    }
  },
  "60502": {
    "name": "PlanetScope-60502",
    "line1": "1 60502U 24149AL  26080.78488491  .00233396  00000-0  19059-2 0  9990",
    "line2": "2 60502  97.3664 165.8947 0007939 209.5512 150.5302 15.69841022 89003",
    "meta": {
      "display_name": "PlanetScope-60502",
      "type": "optical",
      "swath_km": 8.0,
      "resolution_m": 4.0,
      "off_nadir_deg": 0,
      "altitude_km": 525.0,
      "priority": 10
    }
  },
  "60503": {
    "name": "PlanetScope-60503",
    "line1": "1 60503U 24149AM  26080.95788416  .00414666  00000-0  20792-2 0  9997",
    "line2": "2 60503  97.3690 167.9276 0005291 217.9420 142.1475 15.80649200 89129",
    "meta": {
      "display_name": "PlanetScope-60503",
      "type": "optical",
      "swath_km": 8.0,
      "resolution_m": 4.0,
      "off_nadir_deg": 0,
      "altitude_km": 525.0,
      "priority": 10
    }
  },
  "60505": {
    "name": "PlanetScope-60505",
    "line1": "1 60505U 24149AP  26080.66026878  .00028326  00000-0  71840-3 0  9999",
    "line2": "2 60505  97.3744 164.2254 0003791 219.5517 140.5453 15.39649386 88884",
    "meta": {
      "display_name": "PlanetScope-60505",
      "type": "optical",
      "swath_km": 8.0,
      "resolution_m": 4.0,
      "off_nadir_deg": 0,
      "altitude_km": 525.0,
      "priority": 10
    }
  },
  "60509": {
    "name": "PlanetScope-60509",
    "line1": "1 60509U 24149AT  26080.67672450  .00029385  00000-0  71352-3 0  9991",
    "line2": "2 60509  97.3828 165.4272 0002255 225.7761 134.3300 15.40971509 88922",
    "meta": {
      "display_name": "PlanetScope-60509",
      "type": "optical",
      "swath_km": 8.0,
      "resolution_m": 4.0,
      "off_nadir_deg": 0,
      "altitude_km": 525.0,
      "priority": 10
    }
  },
  "60511": {
    "name": "PlanetScope-60511",
    "line1": "1 60511U 24149AV  26080.49134514  .00065864  00000-0  14247-2 0  9999",
    "line2": "2 60511  97.3837 165.8745 0003580 221.0169 139.0810 15.44245582 88935",
    "meta": {
      "display_name": "PlanetScope-60511",
      "type": "optical",
      "swath_km": 8.0,
      "resolution_m": 4.0,
      "off_nadir_deg": 0,
      "altitude_km": 525.0,
      "priority": 10
    }
  },
  "60512": {
    "name": "PlanetScope-60512",
    "line1": "1 60512U 24149AW  26080.66935089  .00026397  00000-0  67798-3 0  9993",
    "line2": "2 60512  97.3740 164.3293 0003906 210.4359 149.6661 15.39275965 88894",
    "meta": {
      "display_name": "PlanetScope-60512",
      "type": "optical",
      "swath_km": 8.0,
      "resolution_m": 4.0,
      "off_nadir_deg": 0,
      "altitude_km": 525.0,
      "priority": 10
    }
  },
  "60513": {
    "name": "PlanetScope-60513",
    "line1": "1 60513U 24149AX  26080.96176735  .00013412  00000-0  42499-3 0  9997",
    "line2": "2 60513  97.3851 162.8665 0002845 239.1898 120.9064 15.32841704 88770",
    "meta": {
      "display_name": "PlanetScope-60513",
      "type": "optical",
      "swath_km": 8.0,
      "resolution_m": 4.0,
      "off_nadir_deg": 0,
      "altitude_km": 525.0,
      "priority": 10
    }
  },
  "60514": {
    "name": "PlanetScope-60514",
    "line1": "1 60514U 24149AY  26080.79475511  .00023821  00000-0  63815-3 0  9993",
    "line2": "2 60514  97.3814 164.3924 0002236 221.7605 138.3470 15.38003803 88873",
    "meta": {
      "display_name": "PlanetScope-60514",
      "type": "optical",
      "swath_km": 8.0,
      "resolution_m": 4.0,
      "off_nadir_deg": 0,
      "altitude_km": 525.0,
      "priority": 10
    }
  },
  "60515": {
    "name": "PlanetScope-60515",
    "line1": "1 60515U 24149AZ  26080.79528039  .00687096  18707-3  23639-2 0  9993",
    "line2": "2 60515  97.3627 168.5037 0006899 261.7148  98.3342 15.89571084 89176",
    "meta": {
      "display_name": "PlanetScope-60515",
      "type": "optical",
      "swath_km": 8.0,
      "resolution_m": 4.0,
      "off_nadir_deg": 0,
      "altitude_km": 525.0,
      "priority": 10
    }
  }
}